[{"OBJECT_NAME":"JILIN-1 GAOFEN 2F","OBJECT_ID":"2021-097A","EPOCH":"2026-03-09T22:15:16.366464","MEAN_MOTION":15.06938169,"ECCENTRICITY":0.00186372,"INCLINATION":97.6538,"RA_OF_ASC_NODE":195.5232,"ARG_OF_PERICENTER":201.1609,"MEAN_ANOMALY":158.885,"EPHEMERIS_TYPE":0,"CLASSIFICATION_TYPE":"U","NORAD_CAT_ID":49338,"ELEMENT_SET_NO":999,"REV_AT_EPOCH":24136,"BSTAR":0.0003789548,"MEAN_MOTION_DOT":5.624e-5,"MEAN_MOTION_DDOT":0},{"OBJECT_NAME":"STARLINK-34962","OBJECT_ID":"2025-179P","EPOCH":"2026-03-09T15:50:23.034912","MEAN_MOTION":15.05654089,"ECCENTRICITY":9.012e-5,"INCLINATION":97.6032,"RA_OF_ASC_NODE":112.9309,"ARG_OF_PERICENTER":99.4001,"MEAN_ANOMALY":260.7328,"EPHEMERIS_TYPE":0,"CLASSIFICATION_TYPE":"U","NORAD_CAT_ID":65248,"ELEMENT_SET_NO":999,"REV_AT_EPOCH":3182,"BSTAR":0.00025081066,"MEAN_MOTION_DOT":3.56e-5,"MEAN_MOTION_DDOT":0}]
